NORAD_CAT_ID,OBJECT_NAME,OBJECT_TYPE,EPOCH,MEAN_MOTION,ECCENTRICITY,INCLINATION,RA_OF_ASC_NODE,ARG_OF_PERICENTER,MEAN_ANOMALY,BSTAR,MEAN_MOTION_DOT,MEAN_MOTION_DDOT,TLE_LINE0,TLE_LINE1,TLE_LINE2,SEMIMAJOR_AXIS,PERIOD,APOGEE,PERIGEE,DECAYED
54775.0,STARLINK-5465,PAYLOAD,2023-11-28 00:01:32,15.0884039,0.0001438,53.2147,182.0364,109.8116,250.3032,-4.5927e-05,-1.019e-05,0.0,0 STARLINK-5465,1 54775U 22175T   23332.00106542 -.00001019  00000-0 -45927-4 0  9990,2 54775  53.2147 182.0364 0001438 109.8116 250.3032 15.08840390 54213,6917.879,95.438,540.739,538.749,0.0
54775.0,STARLINK-5465,PAYLOAD,2023-11-28 20:41:32,15.08844101,0.0001377,53.2154,178.1715,110.6478,249.4662,2.0627e-05,4e-07,0.0,0 STARLINK-5465,1 54775U 22175T   23332.86218588  .00000040  00000-0  20627-4 0  9999,2 54775  53.2154 178.1715 0001377 110.6478 249.4662 15.08844101 52186,6917.868,95.437,540.685,538.78,0.0
54775.0,STARLINK-5465,PAYLOAD,2023-11-28 23:52:19,15.08839799,0.0001302,53.2154,177.5775,118.4797,241.6327,7.0919e-05,8.41e-06,0.0,0 STARLINK-5465,1 54775U 22175T   23332.99466654  .00000841  00000-0  70919-4 0  9990,2 54775  53.2154 177.5775 0001302 118.4797 241.6327 15.08839799 54364,6917.881,95.438,540.647,538.845,0.0
54775.0,STARLINK-5465,PAYLOAD,2023-11-29 18:56:57,15.08836353,0.000139,53.2156,174.009,100.487,259.6278,0.0001499,2.098e-05,0.0,0 STARLINK-5465,1 54775U 22175T   23333.78955026  .00002098  00000-0  14990-3 0  9996,2 54775  53.2156 174.0090 0001390 100.4870 259.6278 15.08836353 52329,6917.892,95.438,540.718,538.795,0.0
54775.0,STARLINK-5465,PAYLOAD,2023-11-29 20:32:20,15.08824644,0.0001473,53.2155,173.7115,104.6829,255.4326,0.00032586,4.9e-05,0.0,0 STARLINK-5465,1 54775U 22175T   23333.85579356  .00004900  00000-0  32586-3 0  9997,2 54775  53.2155 173.7115 0001473 104.6829 255.4326 15.08824644 52333,6917.927,95.439,540.811,538.773,0.0
54775.0,STARLINK-5465,PAYLOAD,2023-11-30 20:23:08,15.08813773,0.0001549,53.2163,169.2514,105.7917,254.3246,0.00037834,5.734e-05,0.0,0 STARLINK-5465,1 54775U 22175T   23334.84940177  .00005734  00000-0  37834-3 0  9997,2 54775  53.2163 169.2514 0001549 105.7917 254.3246 15.08813773 52485,6917.961,95.439,540.897,538.754,0.0
54775.0,STARLINK-5465,PAYLOAD,2023-12-01 18:38:30,15.08852276,0.0002235,53.2161,165.0887,140.6501,219.4654,0.0001562,2.199e-05,0.0,0 STARLINK-5465,1 54775U 22175T   23335.77674002  .00002199  00000-0  15620-3 0  9992,2 54775  53.2161 165.0887 0002235 140.6501 219.4654 15.08852276 52622,6917.843,95.437,541.254,538.162,0.0
54775.0,STARLINK-5465,PAYLOAD,2023-12-02 12:07:45,15.08845436,0.0001354,53.2159,161.8187,103.2347,256.8797,0.00012399,1.686e-05,0.0,0 STARLINK-5465,1 54775U 22175T   23336.50538645  .00001686  00000-0  12399-3 0  9996,2 54775  53.2159 161.8187 0001354 103.2347 256.8797 15.08845436 52735,6917.864,95.437,540.665,538.792,0.0
54775.0,STARLINK-5465,PAYLOAD,2023-12-02 20:04:41,15.08845036,0.0001289,53.2159,160.3316,90.4397,269.6743,0.00010575,1.396e-05,0.0,0 STARLINK-5465,1 54775U 22175T   23336.83658684  .00001396  00000-0  10575-3 0  9990,2 54775  53.2159 160.3316 0001289  90.4397 269.6743 15.08845036 54946,6917.865,95.437,540.622,538.838,0.0
54775.0,STARLINK-5465,PAYLOAD,2023-12-03 11:58:32,15.0884197,0.0002734,53.2165,157.3598,155.4989,204.6134,-8.0616e-05,-1.571e-05,0.0,0 STARLINK-5465,1 54775U 22175T   23337.49899187 -.00001571  00000-0 -80616-4 0  9999,2 54775  53.2165 157.3598 0002734 155.4989 204.6134 15.08841970 52883,6917.874,95.437,541.631,537.848,0.0
54775.0,STARLINK-5465,PAYLOAD,2023-12-03 18:20:05,15.08819248,0.0001595,53.2168,156.1691,139.7482,220.3628,0.00021996,3.212e-05,0.0,0 STARLINK-5465,1 54775U 22175T   23337.76395809  .00003212  00000-0  21996-3 0  9998,2 54775  53.2168 156.1691 0001595 139.7482 220.3628 15.08819248 52925,6917.944,95.439,540.912,538.705,0.0
54775.0,STARLINK-5465,PAYLOAD,2023-12-04 21:21:39,15.08838141,0.0001462,53.2167,151.1136,99.6075,260.5083,1.0789e-05,-1.16e-06,0.0,0 STARLINK-5465,1 54775U 22175T   23338.89003736 -.00000116  00000-0  10789-4 0  9998,2 54775  53.2167 151.1136 0001462  99.6075 260.5083 15.08838141 55251,6917.886,95.438,540.762,538.74,0.0
54775.0,STARLINK-5465,PAYLOAD,2023-12-05 11:40:07,15.08838573,0.0001217,53.2156,148.4366,94.685,265.4282,0.00013251,1.822e-05,0.0,0 STARLINK-5465,1 54775U 22175T   23339.48619513  .00001822  00000-0  13251-3 0  9990,2 54775  53.2156 148.4366 0001217  94.6850 265.4282 15.08838573 55341,6917.885,95.438,540.592,538.908,0.0
54775.0,STARLINK-5465,PAYLOAD,2023-12-05 14:50:53,15.08839678,0.000129,53.2154,147.8424,82.6545,277.4594,0.00014632,2.042e-05,0.0,0 STARLINK-5465,1 54775U 22175T   23339.61867479  .00002042  00000-0  14632-3 0  9990,2 54775  53.2154 147.8424 0001290  82.6545 277.4594 15.08839678 55364,6917.881,95.438,540.639,538.854,0.0
54775.0,STARLINK-5465,PAYLOAD,2023-12-06 11:30:54,15.08843402,0.0001293,53.2157,143.9762,89.2036,270.9105,6.3023e-05,7.15e-06,0.0,0 STARLINK-5465,1 54775U 22175T   23340.47979190  .00000715  00000-0  63023-4 0  9994,2 54775  53.2157 143.9762 0001293  89.2036 270.9105 15.08843402 53331,6917.87,95.437,540.629,538.841,0.0
54775.0,STARLINK-5465,PAYLOAD,2023-12-07 11:21:41,15.0883933,0.0001246,53.2158,139.5156,105.5424,254.5706,2.3381e-05,8.4e-07,0.0,0 STARLINK-5465,1 54775U 22175T   23341.47339442  .00000084  00000-0  23381-4 0  9997,2 54775  53.2158 139.5156 0001246 105.5424 254.5706 15.08839330 53487,6917.882,95.438,540.609,538.885,0.0
54775.0,STARLINK-5465,PAYLOAD,2023-12-08 11:12:28,15.08836812,0.0001273,53.2155,135.0558,88.991,271.1228,6.8814e-06,-1.78e-06,0.0,0 STARLINK-5465,1 54775U 22175T   23342.46699860 -.00000178  00000-0  68814-5 0  9996,2 54775  53.2155 135.0558 0001273  88.9910 271.1228 15.08836812 55797,6917.89,95.438,540.636,538.874,0.0
54775.0,STARLINK-5465,PAYLOAD,2023-12-09 09:27:52,15.08836879,0.0001291,53.216,130.8921,83.1334,276.9805,8.8184e-06,-1.48e-06,0.0,0 STARLINK-5465,1 54775U 22175T   23343.39436094 -.00000148  00000-0  88184-5 0  9996,2 54775  53.2160 130.8921 0001291  83.1334 276.9805 15.08836879 55930,6917.89,95.438,540.648,538.862,0.0
54775.0,STARLINK-5465,PAYLOAD,2023-12-10 14:04:48,15.08841975,0.0001307,53.2157,125.5392,90.1979,269.9163,3.4198e-05,2.56e-06,0.0,0 STARLINK-5465,1 54775U 22175T   23344.58667603  .00000256  00000-0  34198-4 0  9994,2 54775  53.2157 125.5392 0001307  90.1979 269.9163 15.08841975 56113,6917.874,95.437,540.644,538.835,0.0
54775.0,STARLINK-5465,PAYLOAD,2023-12-10 17:15:35,15.08840941,0.0001308,53.2168,124.9456,76.1114,284.0023,9.1989e-05,1.176e-05,0.0,0 STARLINK-5465,1 54775U 22175T   23344.71915755  .00001176  00000-0  91989-4 0  9996,2 54775  53.2168 124.9456 0001308  76.1114 284.0023 15.08840941 53971,6917.878,95.437,540.647,538.838,0.0
54775.0,STARLINK-5465,PAYLOAD,2023-12-11 15:30:59,15.08841006,0.000158,53.2176,120.7847,66.2692,293.8466,4.9799e-05,5.05e-06,0.0,0 STARLINK-5465,1 54775U 22175T   23345.64651980  .00000505  00000-0  49799-4 0  9993,2 54775  53.2176 120.7847 0001580  66.2692 293.8466 15.08841006 56279,6917.877,95.437,540.835,538.649,0.0
54775.0,STARLINK-5465,PAYLOAD,2023-12-12 12:11:00,15.08841391,0.0001345,53.2171,116.9211,77.0526,283.0616,1.7477e-05,-1e-07,0.0,0 STARLINK-5465,1 54775U 22175T   23346.50763953 -.00000010  00000-0  17477-4 0  9993,2 54775  53.2171 116.9211 0001345  77.0526 283.0616 15.08841391 54241,6917.876,95.437,540.672,538.811,0.0
54775.0,STARLINK-5465,PAYLOAD,2023-12-12 13:46:23,15.08841334,0.0001337,53.217,116.624,77.6026,282.5115,1.6498e-05,-2.5e-07,0.0,0 STARLINK-5465,1 54775U 22175T   23346.57387941 -.00000025  00000-0  16498-4 0  9997,2 54775  53.2170 116.6240 0001337  77.6026 282.5115 15.08841334 56417,6917.876,95.437,540.666,538.816,0.0
54775.0,STARLINK-5465,PAYLOAD,2023-12-12 15:21:46,15.08842029,0.0001357,53.2168,116.3261,77.0939,283.0205,2.4973e-05,1.1e-06,0.0,0 STARLINK-5465,1 54775U 22175T   23346.64011860  .00000110  00000-0  24973-4 0  9990,2 54775  53.2168 116.3261 0001357  77.0939 283.0205 15.08842029 56422,6917.874,95.437,540.678,538.8,0.0
54775.0,STARLINK-5465,PAYLOAD,2023-12-13 13:37:10,15.0884001,0.0001327,53.2173,112.1587,90.019,270.0954,4.947e-05,5e-06,0.0,0 STARLINK-5465,1 54775U 22175T   23347.56747691  .00000500  00000-0  49470-4 0  9992,2 54775  53.2173 112.1587 0001327  90.0190 270.0954 15.08840010 56564,6917.88,95.438,540.663,538.827,0.0
54775.0,STARLINK-5465,PAYLOAD,2023-12-13 15:12:33,15.08841115,0.0001356,53.2172,111.8614,92.6417,267.473,5.7105e-05,6.21e-06,0.0,0 STARLINK-5465,1 54775U 22175T   23347.63371592  .00000621  00000-0  57105-4 0  9991,2 54775  53.2172 111.8614 0001356  92.6417 267.4730 15.08841115 54413,6917.877,95.437,540.68,538.804,0.0
54775.0,STARLINK-5465,PAYLOAD,2023-12-14 13:27:57,15.0883845,0.0001324,53.217,107.6956,85.0445,275.0698,2.2666e-05,7.3e-07,0.0,0 STARLINK-5465,1 54775U 22175T   23348.56107940  .00000073  00000-0  22666-4 0  9993,2 54775  53.2170 107.6956 0001324  85.0445 275.0698 15.08838450 56716,6917.885,95.438,540.666,538.834,0.0
54775.0,STARLINK-5465,PAYLOAD,2023-12-15 11:43:21,15.08832662,0.0001374,53.2171,103.533,85.8343,274.2806,-1.9803e-05,-6.03e-06,0.0,0 STARLINK-5465,1 54775U 22175T   23349.48844712 -.00000603  00000-0 -19803-4 0  9990,2 54775  53.2171 103.5330 0001374  85.8343 274.2806 15.08832662 54694,6917.903,95.438,540.718,538.817,0.0
54775.0,STARLINK-5465,PAYLOAD,2023-12-15 13:18:44,15.08832788,0.0001374,53.2171,103.2355,85.728,274.3869,-1.9052e-05,-5.91e-06,0.0,0 STARLINK-5465,1 54775U 22175T   23349.55468730 -.00000591  00000-0 -19052-4 0  9992,2 54775  53.2171 103.2355 0001374  85.7280 274.3869 15.08832788 56867,6917.902,95.438,540.718,538.817,0.0
54775.0,STARLINK-5465,PAYLOAD,2023-12-16 11:34:08,15.08836398,0.0001395,53.2175,99.0722,83.4582,276.6568,7.988e-05,9.83e-06,0.0,0 STARLINK-5465,1 54775U 22175T   23350.48204462  .00000983  00000-0  79880-4 0  9994,2 54775  53.2175  99.0722 0001395  83.4582 276.6568 15.08836398 54842,6917.891,95.438,540.721,538.791,0.0
